{
  "type": "FeatureCollection",
  "features": [
    {
      "type": "Feature",
      "properties": {
        "norad_id": 38867,
        "name": "INTELSAT 23 (IS-23)",
        "group": "intelsat",
        "lat": -0.025682488681737028,
        "lon": -10.390112702898632,
        "alt_km": 35785.02190003697,
        "timestamp": "2025-12-22T20:43:45.510602+00:00",
        "meta_object_name": "INTELSAT 23 (IS-23)",
        "meta_object_id": "2012-057A",
        "meta_epoch": "2025-12-22T09:29:21.741792",
        "meta_mean_motion": 1.00268794,
        "meta_eccentricity": 6.983e-05,
        "meta_inclination": 0.0202,
        "meta_ra_of_asc_node": 72.6347,
        "meta_arg_of_pericenter": 228.7277,
        "meta_mean_anomaly": 239.193,
        "meta_ephemeris_type": 0,
        "meta_classification_type": "U",
        "meta_norad_cat_id": 38867,
        "meta_element_set_no": 999,
        "meta_rev_at_epoch": 4818,
        "meta_bstar": 0,
        "meta_mean_motion_dot": -2.63e-06,
        "meta_mean_motion_ddot": 0,
        "tle_line1": "1 38867U 12057A   25356.39539053 -.00000263  00000+0  00000+0 0  9995",
        "tle_line2": "2 38867   0.0202  72.6347 0000698 228.7277 239.1930  1.00268794 48180"
      },
      "geometry": {
        "type": "Point",
        "coordinates": [
          -10.390112702898632,
          -0.025682488681737028
        ]
      }
    },
    {
      "type": "Feature",
      "properties": {
        "norad_id": 39360,
        "name": "FM-6",
        "group": "intelsat",
        "lat": -0.02645524615368157,
        "lon": -73.49933247959288,
        "alt_km": 35777.8607483123,
        "timestamp": "2025-12-22T20:43:45.510614+00:00",
        "meta_object_name": "FM-6",
        "meta_object_id": "2013-058A",
        "meta_epoch": "2025-12-22T10:54:06.126048",
        "meta_mean_motion": 1.00295486,
        "meta_eccentricity": 0.00025049,
        "meta_inclination": 0.0105,
        "meta_ra_of_asc_node": 56.8599,
        "meta_arg_of_pericenter": 147.9876,
        "meta_mean_anomaly": 293.7792,
        "meta_ephemeris_type": 0,
        "meta_classification_type": "U",
        "meta_norad_cat_id": 39360,
        "meta_element_set_no": 999,
        "meta_rev_at_epoch": 4430,
        "meta_bstar": 0,
        "meta_mean_motion_dot": 1e-08,
        "meta_mean_motion_ddot": 0,
        "tle_line1": "1 39360U 13058A   25356.45423757  .00000001  00000+0  00000+0 0  9995",
        "tle_line2": "2 39360   0.0105  56.8599 0002504 147.9876 293.7792  1.00295486 44309"
      },
      "geometry": {
        "type": "Point",
        "coordinates": [
          -73.49933247959288,
          -0.02645524615368157
        ]
      }
    },
    {
      "type": "Feature",
      "properties": {
        "norad_id": 40271,
        "name": "INTELSAT 30 (IS-30)",
        "group": "intelsat",
        "lat": -0.0329922168693777,
        "lon": -52.461823331681025,
        "alt_km": 35791.486720890076,
        "timestamp": "2025-12-22T20:43:45.510625+00:00",
        "meta_object_name": "INTELSAT 30 (IS-30)",
        "meta_object_id": "2014-062A",
        "meta_epoch": "2025-12-22T11:00:05.552640",
        "meta_mean_motion": 1.00272577,
        "meta_eccentricity": 0.00015792,
        "meta_inclination": 0.0108,
        "meta_ra_of_asc_node": 21.0351,
        "meta_arg_of_pericenter": 73.4094,
        "meta_mean_anomaly": 66.7935,
        "meta_ephemeris_type": 0,
        "meta_classification_type": "U",
        "meta_norad_cat_id": 40271,
        "meta_element_set_no": 999,
        "meta_rev_at_epoch": 502,
        "meta_bstar": 0,
        "meta_mean_motion_dot": -1.29e-06,
        "meta_mean_motion_ddot": 0,
        "tle_line1": "1 40271U 14062A   25356.45839760 -.00000129  00000+0  00000+0 0  9991",
        "tle_line2": "2 40271   0.0108  21.0351 0001579  73.4094  66.7935  1.00272577  5020"
      },
      "geometry": {
        "type": "Point",
        "coordinates": [
          -52.461823331681025,
          -0.0329922168693777
        ]
      }
    },
    {
      "type": "Feature",
      "properties": {
        "norad_id": 40333,
        "name": "DIRECTV 14",
        "group": "intelsat",
        "lat": -0.022260345500375058,
        "lon": -56.61178245312329,
        "alt_km": 35784.85720965567,
        "timestamp": "2025-12-22T20:43:45.510637+00:00",
        "meta_object_name": "DIRECTV 14",
        "meta_object_id": "2014-078B",
        "meta_epoch": "2025-12-22T12:41:39.864768",
        "meta_mean_motion": 1.00276684,
        "meta_eccentricity": 2.503e-05,
        "meta_inclination": 0.0114,
        "meta_ra_of_asc_node": 332.5192,
        "meta_arg_of_pericenter": 233.2346,
        "meta_mean_anomaly": 336.7793,
        "meta_ephemeris_type": 0,
        "meta_classification_type": "U",
        "meta_norad_cat_id": 40333,
        "meta_element_set_no": 999,
        "meta_rev_at_epoch": 4027,
        "meta_bstar": 0,
        "meta_mean_motion_dot": -1.05e-06,
        "meta_mean_motion_ddot": 0,
        "tle_line1": "1 40333U 14078B   25356.52893362 -.00000105  00000+0  00000+0 0  9997",
        "tle_line2": "2 40333   0.0114 332.5192 0000250 233.2346 336.7793  1.00276684 40271"
      },
      "geometry": {
        "type": "Point",
        "coordinates": [
          -56.61178245312329,
          -0.022260345500375058
        ]
      }
    },
    {
      "type": "Feature",
      "properties": {
        "norad_id": 40663,
        "name": "DIRECTV 15",
        "group": "intelsat",
        "lat": -0.04616955985782117,
        "lon": -60.273392287594284,
        "alt_km": 35786.047571418974,
        "timestamp": "2025-12-22T20:43:45.510648+00:00",
        "meta_object_name": "DIRECTV 15",
        "meta_object_id": "2015-026A",
        "meta_epoch": "2025-12-22T10:57:50.767776",
        "meta_mean_motion": 1.00273682,
        "meta_eccentricity": 4.03e-05,
        "meta_inclination": 0.0228,
        "meta_ra_of_asc_node": 18.0826,
        "meta_arg_of_pericenter": 174.8606,
        "meta_mean_anomaly": 319.9041,
        "meta_ephemeris_type": 0,
        "meta_classification_type": "U",
        "meta_norad_cat_id": 40663,
        "meta_element_set_no": 999,
        "meta_rev_at_epoch": 3869,
        "meta_bstar": 0,
        "meta_mean_motion_dot": 0,
        "meta_mean_motion_ddot": 0,
        "tle_line1": "1 40663U 15026A   25356.45683759  .00000000  00000+0  00000+0 0  9999",
        "tle_line2": "2 40663   0.0228  18.0826 0000403 174.8606 319.9041  1.00273682 38699"
      },
      "geometry": {
        "type": "Point",
        "coordinates": [
          -60.273392287594284,
          -0.04616955985782117
        ]
      }
    },
    {
      "type": "Feature",
      "properties": {
        "norad_id": 40664,
        "name": "SKY MEXICO-1",
        "group": "intelsat",
        "lat": -0.02624281471657979,
        "lon": -36.150353952799286,
        "alt_km": 35778.09911090556,
        "timestamp": "2025-12-22T20:43:45.510659+00:00",
        "meta_object_name": "SKY MEXICO-1",
        "meta_object_id": "2015-026B",
        "meta_epoch": "2025-12-22T11:10:21.220896",
        "meta_mean_motion": 1.00271143,
        "meta_eccentricity": 0.00023989,
        "meta_inclination": 0.0142,
        "meta_ra_of_asc_node": 4.5629,
        "meta_arg_of_pericenter": 283.2805,
        "meta_mean_anomaly": 252.2543,
        "meta_ephemeris_type": 0,
        "meta_classification_type": "U",
        "meta_norad_cat_id": 40664,
        "meta_element_set_no": 999,
        "meta_rev_at_epoch": 3868,
        "meta_bstar": 0,
        "meta_mean_motion_dot": -2.13e-06,
        "meta_mean_motion_ddot": 0,
        "tle_line1": "1 40664U 15026B   25356.46552339 -.00000213  00000+0  00000+0 0  9997",
        "tle_line2": "2 40664   0.0142   4.5629 0002398 283.2805 252.2543  1.00271143 38682"
      },
      "geometry": {
        "type": "Point",
        "coordinates": [
          -36.150353952799286,
          -0.02624281471657979
        ]
      }
    },
    {
      "type": "Feature",
      "properties": {
        "norad_id": 40874,
        "name": "INTELSAT 34 (IS-34)",
        "group": "intelsat",
        "lat": 0.005352242058847227,
        "lon": -12.88364482325459,
        "alt_km": 35787.94490990866,
        "timestamp": "2025-12-22T20:43:45.510671+00:00",
        "meta_object_name": "INTELSAT 34 (IS-34)",
        "meta_object_id": "2015-039A",
        "meta_epoch": "2025-12-22T11:11:19.477824",
        "meta_mean_motion": 1.00275391,
        "meta_eccentricity": 7.019e-05,
        "meta_inclination": 0.0157,
        "meta_ra_of_asc_node": 310.7317,
        "meta_arg_of_pericenter": 232.3178,
        "meta_mean_anomaly": 20.5664,
        "meta_ephemeris_type": 0,
        "meta_classification_type": "U",
        "meta_norad_cat_id": 40874,
        "meta_element_set_no": 999,
        "meta_rev_at_epoch": 3785,
        "meta_bstar": 0,
        "meta_mean_motion_dot": -2.64e-06,
        "meta_mean_motion_ddot": 0,
        "tle_line1": "1 40874U 15039A   25356.46619766 -.00000264  00000+0  00000+0 0  9998",
        "tle_line2": "2 40874   0.0157 310.7317 0000701 232.3178  20.5664  1.00275391 37858"
      },
      "geometry": {
        "type": "Point",
        "coordinates": [
          -12.88364482325459,
          0.005352242058847227
        ]
      }
    }
  ]
}